NORAD_CAT_ID,OBJECT_NAME,OBJECT_TYPE,EPOCH,MEAN_MOTION,ECCENTRICITY,INCLINATION,RA_OF_ASC_NODE,ARG_OF_PERICENTER,MEAN_ANOMALY,BSTAR,MEAN_MOTION_DOT,MEAN_MOTION_DDOT,TLE_LINE0,TLE_LINE1,TLE_LINE2,SEMIMAJOR_AXIS,PERIOD,APOGEE,PERIGEE,DECAYED
54777.0,STARLINK-5468,PAYLOAD,2024-02-16 17:51:23,15.08860113,9.71e-05,53.215,179.5317,82.2759,277.8344,0.0011184,0.00017566,0.0,0 STARLINK-5468,1 54777U 22175V   24047.74402475  .00017566  00000-0  11184-2 0  9999,2 54777  53.2150 179.5317 0000971  82.2759 277.8344 15.08860113 66405,6917.819,95.436,540.356,539.012,0.0
54777.0,STARLINK-5468,PAYLOAD,2024-02-17 14:31:24,15.08844976,6.63e-05,53.2164,175.6673,93.5772,266.5296,0.00066671,0.0001034,0.0,0 STARLINK-5468,1 54777U 22175V   24048.60514862  .00010340  00000-0  66671-3 0  9994,2 54777  53.2164 175.6673 0000663  93.5772 266.5296 15.08844976 66534,6917.865,95.437,540.189,539.272,0.0
54777.0,STARLINK-5468,PAYLOAD,2024-02-17 17:42:11,15.08851786,8.26e-05,53.2153,175.0706,99.8109,260.2977,0.0010179,0.00015954,0.0,0 STARLINK-5468,1 54777U 22175V   24048.73762767  .00015954  00000-0  10179-2 0  9994,2 54777  53.2153 175.0706 0000826  99.8109 260.2977 15.08851786 64393,6917.844,95.437,540.281,539.138,0.0
54777.0,STARLINK-5468,PAYLOAD,2024-02-18 01:39:06,15.08838549,8.57e-05,53.2156,173.584,84.8125,275.2964,0.00033425,5.036e-05,0.0,0 STARLINK-5468,1 54777U 22175V   24049.06882848  .00005036  00000-0  33425-3 0  9994,2 54777  53.2156 173.5840 0000857  84.8125 275.2964 15.08838549 64444,6917.885,95.438,540.343,539.157,0.0
54777.0,STARLINK-5468,PAYLOAD,2024-02-18 14:22:12,15.08839521,9.32e-05,53.2156,171.2029,99.5271,260.5826,0.0008877,0.00013868,0.0,0 STARLINK-5468,1 54777U 22175V   24049.59875102  .00013868  00000-0  88770-3 0  9992,2 54777  53.2156 171.2029 0000932  99.5271 260.5826 15.08839521 66680,6917.882,95.438,540.392,539.102,0.0
54777.0,STARLINK-5468,PAYLOAD,2024-02-18 17:32:58,15.08853705,0.0001295,53.2165,170.606,99.5234,260.5904,0.00072576,0.00011286,0.0,0 STARLINK-5468,1 54777U 22175V   24049.73122746  .00011286  00000-0  72576-3 0  9996,2 54777  53.2165 170.6060 0001295  99.5234 260.5904 15.08853705 66700,6917.838,95.437,540.599,538.808,0.0
54777.0,STARLINK-5468,PAYLOAD,2024-02-19 01:29:53,15.08840805,0.0001156,53.2178,169.1216,101.8122,258.3,0.000195,2.817e-05,0.0,0 STARLINK-5468,1 54777U 22175V   24050.06243010  .00002817  00000-0  19500-3 0  9990,2 54777  53.2178 169.1216 0001156 101.8122 258.3000 15.08840805 64593,6917.878,95.438,540.543,538.943,0.0
54777.0,STARLINK-5468,PAYLOAD,2024-02-19 14:12:59,15.08839143,0.0001266,53.2166,166.7436,104.4995,255.6137,0.00018525,2.662e-05,0.0,0 STARLINK-5468,1 54777U 22175V   24050.59235308  .00002662  00000-0  18525-3 0  9993,2 54777  53.2166 166.7436 0001266 104.4995 255.6137 15.08839143 66839,6917.883,95.438,540.624,538.872,0.0
54777.0,STARLINK-5468,PAYLOAD,2024-02-20 14:03:46,15.08847356,0.000113,53.2165,162.2841,85.4065,274.7057,0.00033656,5.074e-05,0.0,0 STARLINK-5468,1 54777U 22175V   24051.58595369  .00005074  00000-0  33656-3 0  9991,2 54777  53.2165 162.2841 0001130  85.4065 274.7057 15.08847356 66989,6917.858,95.437,540.505,538.941,0.0
54777.0,STARLINK-5468,PAYLOAD,2024-02-21 12:19:10,15.08842125,0.0001261,53.2168,158.1213,88.4312,271.6825,0.00019715,2.851e-05,0.0,0 STARLINK-5468,1 54777U 22175V   24052.51331620  .00002851  00000-0  19715-3 0  9993,2 54777  53.2168 158.1213 0001261  88.4312 271.6825 15.08842125 64966,6917.874,95.437,540.611,538.867,0.0
54777.0,STARLINK-5468,PAYLOAD,2024-02-21 13:54:33,15.08843915,0.0001284,53.2166,157.8252,89.3014,270.8125,0.00016788,2.385e-05,0.0,0 STARLINK-5468,1 54777U 22175V   24052.57955502  .00002385  00000-0  16788-3 0  9999,2 54777  53.2166 157.8252 0001284  89.3014 270.8125 15.08843915 67131,6917.868,95.437,540.622,538.845,0.0
54777.0,STARLINK-5468,PAYLOAD,2024-02-22 13:45:20,15.08842627,0.0001332,53.2171,153.3669,91.8073,268.3072,3.8691e-05,3.28e-06,0.0,0 STARLINK-5468,1 54777U 22175V   24053.57315539  .00000328  00000-0  38691-4 0  9993,2 54777  53.2171 153.3669 0001332  91.8073 268.3072 15.08842627 67285,6917.872,95.437,540.659,538.816,0.0
54777.0,STARLINK-5468,PAYLOAD,2024-02-23 13:36:07,15.08845037,0.0001384,53.2173,148.9056,90.6985,269.4166,0.00014375,2.001e-05,0.0,0 STARLINK-5468,1 54777U 22175V   24054.56675427  .00002001  00000-0  14375-3 0  9990,2 54777  53.2173 148.9056 0001384  90.6985 269.4166 15.08845037 67434,6917.865,95.437,540.687,538.773,0.0
54777.0,STARLINK-5468,PAYLOAD,2024-02-23 23:08:26,15.08838934,0.0001349,53.2169,147.1206,86.317,273.7977,5.6067e-05,6.04e-06,0.0,0 STARLINK-5468,1 54777U 22175V   24054.96419720  .00000604  00000-0  56067-4 0  9998,2 54777  53.2169 147.1206 0001349  86.3170 273.7977 15.08838934 65339,6917.884,95.438,540.682,538.815,0.0
54777.0,STARLINK-5468,PAYLOAD,2024-02-24 13:26:55,15.08838733,0.0001561,53.2188,144.4449,99.9816,260.1352,7.604e-05,9.22e-06,0.0,0 STARLINK-5468,1 54777U 22175V   24055.56036272  .00000922  00000-0  76040-4 0  9998,2 54777  53.2188 144.4449 0001561  99.9816 260.1352 15.08838733 67585,6917.884,95.438,540.829,538.669,0.0
54777.0,STARLINK-5468,PAYLOAD,2024-02-24 15:02:18,15.08832733,0.0001537,53.2186,144.1451,107.4853,252.6308,0.00018515,2.659e-05,0.0,0 STARLINK-5468,1 54777U 22175V   24055.62660441  .00002659  00000-0  18515-3 0  9997,2 54777  53.2186 144.1451 0001537 107.4853 252.6308 15.08832733 65435,6917.903,95.438,540.831,538.704,0.0
54777.0,STARLINK-5468,PAYLOAD,2024-02-25 11:42:16,15.08870796,0.0001605,53.2186,140.2821,96.576,263.5414,0.00034539,5.218e-05,0.0,0 STARLINK-5468,1 54777U 22175V   24056.48769242  .00005218  00000-0  34539-3 0  9999,2 54777  53.2186 140.2821 0001605  96.5760 263.5414 15.08870796 65568,6917.786,95.436,540.762,538.541,0.0
54777.0,STARLINK-5468,PAYLOAD,2024-02-25 13:17:39,15.0887529,0.0001551,53.2181,139.9848,92.9974,267.1196,0.00037973,5.766e-05,0.0,0 STARLINK-5468,1 54777U 22175V   24056.55392775  .00005766  00000-0  37973-3 0  9993,2 54777  53.2181 139.9848 0001551  92.9974 267.1196 15.08875290 67736,6917.773,95.435,540.71,538.565,0.0
54777.0,STARLINK-5468,PAYLOAD,2024-02-25 22:50:00,15.08843473,0.0001812,53.219,138.1977,76.1637,283.9557,9.6597e-05,1.25e-05,0.0,0 STARLINK-5468,1 54777U 22175V   24056.95139317  .00001250  00000-0  96597-4 0  9990,2 54777  53.2190 138.1977 0001812  76.1637 283.9557 15.08843473 67791,6917.87,95.437,540.988,538.481,0.0
54777.0,STARLINK-5468,PAYLOAD,2024-02-26 11:33:06,15.08820375,0.0001664,53.2166,135.8228,68.8659,291.2511,-0.00027496,-4.659e-05,0.0,0 STARLINK-5468,1 54777U 22175V   24057.48132815 -.00004659  00000-0 -27496-3 0  9994,2 54777  53.2166 135.8228 0001664  68.8659 291.2511 15.08820375 65712,6917.94,95.439,540.957,538.654,0.0
54777.0,STARLINK-5468,PAYLOAD,2024-02-27 11:23:52,15.088548,0.0001396,53.2162,131.3603,79.0834,281.0315,3.7545e-05,3.1e-06,0.0,0 STARLINK-5468,1 54777U 22175V   24058.47491334  .00000310  00000-0  37545-4 0  9993,2 54777  53.2162 131.3603 0001396  79.0834 281.0315 15.08854800 65862,6917.835,95.437,540.666,538.734,0.0
54777.0,STARLINK-5468,PAYLOAD,2024-02-28 11:14:40,15.08836694,0.0001674,53.2167,126.8996,77.0624,283.0555,0.00032731,4.924e-05,0.0,0 STARLINK-5468,1 54777U 22175V   24059.46852700  .00004924  00000-0  32731-3 0  9997,2 54777  53.2167 126.8996 0001674  77.0624 283.0555 15.08836694 66012,6917.89,95.438,540.914,538.597,0.0
54777.0,STARLINK-5468,PAYLOAD,2024-02-28 14:25:26,15.08838267,0.0001509,53.2162,126.3037,73.7288,286.387,0.00026321,3.903e-05,0.0,0 STARLINK-5468,1 54777U 22175V   24059.60100541  .00003903  00000-0  26321-3 0  9996,2 54777  53.2162 126.3037 0001509  73.7288 286.3870 15.08838267 68199,6917.886,95.438,540.795,538.707,0.0
54777.0,STARLINK-5468,PAYLOAD,2024-02-29 11:05:27,15.08848082,0.0001468,53.2172,122.4377,75.6066,284.5089,5.5865e-05,6.01e-06,0.0,0 STARLINK-5468,1 54777U 22175V   24060.46211929  .00000601  00000-0  55865-4 0  9993,2 54777  53.2172 122.4377 0001468  75.6066 284.5089 15.08848082 68326,6917.856,95.437,540.736,538.705,0.0
54777.0,STARLINK-5468,PAYLOAD,2024-02-29 20:37:46,15.08841919,0.0001464,53.2174,120.6559,75.6082,284.5073,-3.6509e-05,-8.69e-06,0.0,0 STARLINK-5468,1 54777U 22175V   24060.85956447 -.00000869  00000-0 -36509-4 0  9999,2 54777  53.2174 120.6559 0001464  75.6082 284.5073 15.08841919 68385,6917.875,95.437,540.752,538.727,0.0
54777.0,STARLINK-5468,PAYLOAD,2024-03-01 04:34:42,15.08834856,0.0001443,53.2172,119.1693,80.7858,279.3297,3.422e-06,-2.33e-06,0.0,0 STARLINK-5468,1 54777U 22175V   24061.19076913 -.00000233  00000-0  34220-5 0  9991,2 54777  53.2172 119.1693 0001443  80.7858 279.3297 15.08834856 66278,6917.896,95.438,540.759,538.763,0.0
54777.0,STARLINK-5468,PAYLOAD,2024-03-01 10:56:14,15.08838775,0.000144,53.2172,117.9804,83.5023,276.6133,3.6377e-05,2.91e-06,0.0,0 STARLINK-5468,1 54777U 22175V   24061.45572635  .00000291  00000-0  36377-4 0  9999,2 54777  53.2172 117.9804 0001440  83.5023 276.6133 15.08838775 68477,6917.884,95.438,540.745,538.753,0.0
54777.0,STARLINK-5468,PAYLOAD,2024-03-02 10:47:01,15.08847305,0.0001477,53.2172,113.52,87.1499,272.9662,8.8302e-05,1.118e-05,0.0,0 STARLINK-5468,1 54777U 22175V   24062.44931983  .00001118  00000-0  88302-4 0  9998,2 54777  53.2172 113.5200 0001477  87.1499 272.9662 15.08847305 66468,6917.858,95.437,540.745,538.701,0.0
54777.0,STARLINK-5468,PAYLOAD,2024-03-03 10:37:49,15.08832765,0.0001453,53.2172,109.0575,85.8306,274.2852,-6.0496e-06,-3.84e-06,0.0,0 STARLINK-5468,1 54777U 22175V   24063.44293293 -.00000384  00000-0 -60496-5 0  9995,2 54777  53.2172 109.0575 0001453  85.8306 274.2852 15.08832765 66616,6917.903,95.438,540.773,538.762,0.0
54777.0,STARLINK-5468,PAYLOAD,2024-03-03 12:13:12,15.08831831,0.0001384,53.2168,108.7605,84.1308,275.9842,-1.6929e-05,-5.57e-06,0.0,0 STARLINK-5468,1 54777U 22175V   24063.50917372 -.00000557  00000-0 -16929-4 0  9996,2 54777  53.2168 108.7605 0001384  84.1308 275.9842 15.08831831 68788,6917.905,95.438,540.728,538.813,0.0
